[{"OBJECT_NAME":"STARLINK-31146","OBJECT_ID":"2024-011E","EPOCH":"2026-03-09T05:57:15.504768","MEAN_MOTION":15.30192179,"ECCENTRICITY":0.00010239,"INCLINATION":53.162,"RA_OF_ASC_NODE":15.6589,"ARG_OF_PERICENTER":93.7105,"MEAN_ANOMALY":266.4012,"EPHEMERIS_TYPE":0,"CLASSIFICATION_TYPE":"U","NORAD_CAT_ID":58769,"ELEMENT_SET_NO":999,"REV_AT_EPOCH":12020,"BSTAR":-1.442369e-6,"MEAN_MOTION_DOT":-4.02e-6,"MEAN_MOTION_DDOT":0},{"OBJECT_NAME":"PHISAT 2","OBJECT_ID":"2024-149C","EPOCH":"2026-03-09T18:55:12.732384","MEAN_MOTION":15.29548632,"ECCENTRICITY":0.00011753,"INCLINATION":97.3806,"RA_OF_ASC_NODE":148.6498,"ARG_OF_PERICENTER":168.623,"MEAN_ANOMALY":191.5037,"EPHEMERIS_TYPE":0,"CLASSIFICATION_TYPE":"U","NORAD_CAT_ID":60470,"ELEMENT_SET_NO":999,"REV_AT_EPOCH":8679,"BSTAR":0.00031420974,"MEAN_MOTION_DOT":8.925e-5,"MEAN_MOTION_DDOT":0}]
