STARLINK-31146          
1 58769U 24011E   26068.24809612 -.00000402  00000+0 -14424-5 0  9994
2 58769  53.1620  15.6589 0001023  93.7105 266.4012 15.30192179120203
PHISAT 2                
1 60470U 24149C   26068.78834181  .00008925  00000+0  31421-3 0  9996
2 60470  97.3806 148.6498 0001175 168.6230 191.5037 15.29548631 86792
